[{"OBJECT_NAME":"CUBESX-HSE 3 (RS42S)","OBJECT_ID":"2023-091N","EPOCH":"2026-03-09T22:57:25.321248","MEAN_MOTION":15.286147,"ECCENTRICITY":0.00127191,"INCLINATION":97.5203,"RA_OF_ASC_NODE":133.4295,"ARG_OF_PERICENTER":86.5376,"MEAN_ANOMALY":273.7318,"EPHEMERIS_TYPE":0,"CLASSIFICATION_TYPE":"U","NORAD_CAT_ID":57178,"ELEMENT_SET_NO":999,"REV_AT_EPOCH":14925,"BSTAR":0.00059055694,"MEAN_MOTION_DOT":0.00016417,"MEAN_MOTION_DDOT":0},{"OBJECT_NAME":"STARLINK-33809","OBJECT_ID":"2025-071R","EPOCH":"2026-03-09T12:10:09.413760","MEAN_MOTION":15.30178871,"ECCENTRICITY":0.00012102,"INCLINATION":53.1583,"RA_OF_ASC_NODE":140.6134,"ARG_OF_PERICENTER":88.6701,"MEAN_ANOMALY":271.4439,"EPHEMERIS_TYPE":0,"CLASSIFICATION_TYPE":"U","NORAD_CAT_ID":63508,"ELEMENT_SET_NO":999,"REV_AT_EPOCH":5268,"BSTAR":0.0011179203,"MEAN_MOTION_DOT":0.00032875,"MEAN_MOTION_DDOT":0}]
